NORAD_CAT_ID,OBJECT_NAME,OBJECT_TYPE,EPOCH,MEAN_MOTION,ECCENTRICITY,INCLINATION,RA_OF_ASC_NODE,ARG_OF_PERICENTER,MEAN_ANOMALY,BSTAR,MEAN_MOTION_DOT,MEAN_MOTION_DDOT,TLE_LINE0,TLE_LINE1,TLE_LINE2,SEMIMAJOR_AXIS,PERIOD,APOGEE,PERIGEE,DECAYED
56801.0,STARLINK-6087,PAYLOAD,2023-09-04 10:47:58,15.69938226,0.0002624,69.9989,142.8848,271.5985,88.491,1.3603e-06,-4.9e-07,0.0,0 STARLINK-6087,1 56801U 23078AL  23247.44998241 -.00000049  00000-0  13603-5 0  9991,2 56801  69.9989 142.8848 0002624 271.5985  88.4910 15.69938226 15140,6737.211,91.723,360.844,357.308,0.0
56801.0,STARLINK-6087,PAYLOAD,2023-09-05 03:37:14,15.69932813,0.0002678,69.9988,140.9134,264.259,95.8301,1.0952e-07,-1.99e-06,0.0,0 STARLINK-6087,1 56801U 23078AL  23248.15086449 -.00000199  00000-0  10952-6 0  9999,2 56801  69.9988 140.9134 0002678 264.2590  95.8301 15.69932813 15519,6737.226,91.724,360.895,357.287,0.0
56801.0,STARLINK-6087,PAYLOAD,2023-09-06 04:05:17,15.69930684,0.0003105,69.9981,138.0478,264.3184,95.7658,6.9098e-06,6.18e-06,0.0,0 STARLINK-6087,1 56801U 23078AL  23249.17033574  .00000618  00000-0  69098-5 0  9992,2 56801  69.9981 138.0478 0003105 264.3184  95.7658 15.69930684 15672,6737.232,91.724,361.189,357.005,0.0
56801.0,STARLINK-6087,PAYLOAD,2023-09-07 19:50:46,15.69959892,0.0003807,69.9972,133.3901,268.1925,91.8835,3.779e-05,4.34e-05,0.0,0 STARLINK-6087,1 56801U 23078AL  23250.82692603  .00004340  00000-0  37790-4 0  9999,2 56801  69.9972 133.3901 0003807 268.1925  91.8835 15.69959892 15671,6737.149,91.722,361.579,356.449,0.0
56801.0,STARLINK-6087,PAYLOAD,2023-09-08 01:57:47,15.69962812,0.0004841,69.9982,132.6744,258.3409,101.7243,-0.000108,-0.00013205,0.0,0 STARLINK-6087,1 56801U 23078AL  23251.08180525 -.00013205  00000-0 -10800-3 0  9997,2 56801  69.9982 132.6744 0004841 258.3409 101.7243 15.69962812 15979,6737.14,91.722,362.267,355.744,0.0
56801.0,STARLINK-6087,PAYLOAD,2023-09-08 18:47:08,15.69957856,0.0004252,69.9973,130.7027,268.2011,91.8698,-4.8466e-05,-6.046e-05,0.0,0 STARLINK-6087,1 56801U 23078AL  23251.78274046 -.00006046  00000-0 -48466-4 0  9991,2 56801  69.9973 130.7027 0004252 268.2011  91.8698 15.69957856 16085,6737.155,91.722,361.884,356.155,0.0
56801.0,STARLINK-6087,PAYLOAD,2023-09-09 02:25:53,15.69940781,0.0003681,69.9977,129.8073,264.8621,95.2155,-1.8021e-05,-2.381e-05,0.0,0 STARLINK-6087,1 56801U 23078AL  23252.10131155 -.00002381  00000-0 -18021-4 0  9993,2 56801  69.9977 129.8073 0003681 264.8621  95.2155 15.69940781 15874,6737.203,91.723,361.548,356.588,0.0
56801.0,STARLINK-6087,PAYLOAD,2023-09-09 19:15:07,15.69949441,0.0004973,69.9978,127.8362,277.7849,82.2782,-0.00010169,-0.00012441,0.0,0 STARLINK-6087,1 56801U 23078AL  23252.80217405 -.00012441  00000-0 -10169-3 0  9995,2 56801  69.9978 127.8362 0004973 277.7849  82.2782 15.69949441 16240,6737.179,91.723,362.394,355.693,0.0
56801.0,STARLINK-6087,PAYLOAD,2023-09-10 01:22:08,15.69940701,0.0004012,69.9993,127.1205,269.4425,90.6311,-8.0163e-05,-9.849e-05,0.0,0 STARLINK-6087,1 56801U 23078AL  23253.05704185 -.00009849  00000-0 -80163-4 0  9999,2 56801  69.9993 127.1205 0004012 269.4425  90.6311 15.69940701 16025,6737.204,91.723,361.772,356.366,0.0
56801.0,STARLINK-6087,PAYLOAD,2023-09-10 18:11:26,15.69921439,0.0003235,69.9977,125.1488,267.1626,92.9199,2.0522e-05,2.255e-05,0.0,0 STARLINK-6087,1 56801U 23078AL  23253.75794363  .00002255  00000-0  20522-4 0  9998,2 56801  69.9977 125.1488 0003235 267.1626  92.9199 15.69921439 16398,6737.259,91.724,361.303,356.944,0.0
56801.0,STARLINK-6087,PAYLOAD,2023-09-11 01:50:11,15.69926786,0.0003258,69.9997,124.2539,268.2183,91.8639,2.6935e-05,3.027e-05,0.0,0 STARLINK-6087,1 56801U 23078AL  23254.07652508  .00003027  00000-0  26935-4 0  9990,2 56801  69.9997 124.2539 0003258 268.2183  91.8639 15.69926786 16186,6737.243,91.724,361.303,356.913,0.0
56801.0,STARLINK-6087,PAYLOAD,2023-09-12 00:46:28,15.69923984,0.0003399,69.999,121.5667,267.522,92.5587,2.9381e-05,3.321e-05,0.0,0 STARLINK-6087,1 56801U 23078AL  23255.03227580  .00003321  00000-0  29381-4 0  9990,2 56801  69.9990 121.5667 0003399 267.5220  92.5587 15.69923984 16593,6737.251,91.724,361.406,356.826,0.0
56801.0,STARLINK-6087,PAYLOAD,2023-09-12 19:07:29,15.69931801,0.0003131,70.0,119.4182,259.9363,100.148,1.5901e-05,1.7e-05,0.0,0 STARLINK-6087,1 56801U 23078AL  23255.79687313  .00001700  00000-0  15901-4 0  9999,2 56801  70.0000 119.4182 0003131 259.9363 100.1480 15.69931801 16453,6737.229,91.724,361.204,356.985,0.0
56801.0,STARLINK-6087,PAYLOAD,2023-09-13 01:14:30,15.69936471,0.0003099,69.9987,118.6995,261.7457,98.3387,2.3775e-05,2.648e-05,0.0,0 STARLINK-6087,1 56801U 23078AL  23256.05173694  .00002648  00000-0  23775-4 0  9991,2 56801  69.9987 118.6995 0003099 261.7457  98.3387 15.69936471 16750,6737.216,91.723,361.169,356.993,0.0
56801.0,STARLINK-6087,PAYLOAD,2023-09-13 18:03:46,15.69929095,0.000344,69.9994,116.7317,260.164,99.9167,5.8168e-06,4.87e-06,0.0,0 STARLINK-6087,1 56801U 23078AL  23256.75262227  .00000487  00000-0  58168-5 0  9993,2 56801  69.9994 116.7317 0003440 260.1640  99.9167 15.69929095 16861,6737.237,91.724,361.419,356.784,0.0
56801.0,STARLINK-6087,PAYLOAD,2023-09-13 21:07:17,15.69913202,0.0003804,69.9975,116.3687,274.0601,86.016,-1.3772e-05,-1.868e-05,0.0,0 STARLINK-6087,1 56801U 23078AL  23256.88006280 -.00001868  00000-0 -13772-4 0  9999,2 56801  69.9975 116.3687 0003804 274.0601  86.0160 15.69913202 16628,6737.282,91.725,361.71,356.584,0.0
56801.0,STARLINK-6087,PAYLOAD,2023-09-14 01:42:32,15.69913385,0.0003692,69.9982,115.833,271.9178,88.1594,-1.6501e-05,-2.196e-05,0.0,0 STARLINK-6087,1 56801U 23078AL  23257.07121501 -.00002196  00000-0 -16501-4 0  9993,2 56801  69.9982 115.8330 0003692 271.9178  88.1594 15.69913385 16913,6737.282,91.725,361.634,356.659,0.0
56801.0,STARLINK-6087,PAYLOAD,2023-09-14 17:00:03,15.69928874,0.0003023,69.9984,114.0419,264.5956,95.4894,1.438e-05,1.517e-05,0.0,0 STARLINK-6087,1 56801U 23078AL  23257.70837783  .00001517  00000-0  14380-4 0  9996,2 56801  69.9984 114.0419 0003023 264.5956  95.4894 15.69928874 17019,6737.237,91.724,361.139,357.066,0.0
56801.0,STARLINK-6087,PAYLOAD,2023-09-15 02:10:34,15.69929572,0.0003134,69.9988,112.9653,265.0838,95.0,2.3869e-05,2.659e-05,0.0,0 STARLINK-6087,1 56801U 23078AL  23258.09067765  .00002659  00000-0  23869-4 0  9994,2 56801  69.9988 112.9653 0003134 265.0838  95.0000 15.69929572 16816,6737.235,91.724,361.212,356.989,0.0
56801.0,STARLINK-6087,PAYLOAD,2023-09-15 17:28:05,15.69924474,0.0003577,69.9977,111.1748,270.5943,89.4843,3.8772e-05,4.452e-05,0.0,0 STARLINK-6087,1 56801U 23078AL  23258.72784654  .00004452  00000-0  38772-4 0  9999,2 56801  69.9977 111.1748 0003577 270.5943  89.4843 15.69924474 17177,6737.25,91.724,361.525,356.705,0.0
56801.0,STARLINK-6087,PAYLOAD,2023-09-15 23:35:06,15.69915231,0.0003473,69.9985,110.4576,270.0285,90.0512,1.8972e-05,2.068e-05,0.0,0 STARLINK-6087,1 56801U 23078AL  23258.98271813  .00002068  00000-0  18972-4 0  9996,2 56801  69.9985 110.4576 0003473 270.0285  90.0512 15.69915231 17213,6737.277,91.725,361.481,356.802,0.0
56801.0,STARLINK-6087,PAYLOAD,2023-09-16 13:20:52,15.69924893,0.0003542,69.997,108.8456,270.8648,89.2142,1.0301e-05,1.026e-05,0.0,0 STARLINK-6087,1 56801U 23078AL  23259.55616556  .00001026  00000-0  10301-4 0  9998,2 56801  69.9970 108.8456 0003542 270.8648  89.2142 15.69924893 17047,6737.249,91.724,361.5,356.728,0.0
56801.0,STARLINK-6087,PAYLOAD,2023-09-17 00:03:08,15.6993263,0.0003396,69.9973,107.5919,267.4919,92.5887,2.5015e-06,8.8e-07,0.0,0 STARLINK-6087,1 56801U 23078AL  23260.00217779  .00000088  00000-0  25015-5 0  9990,2 56801  69.9973 107.5919 0003396 267.4919  92.5887 15.69932630 17377,6737.227,91.724,361.38,356.804,0.0
56801.0,STARLINK-6087,PAYLOAD,2023-09-17 01:34:53,15.69928822,0.0003093,69.9981,107.4135,264.2316,95.8527,1.5486e-06,-2.6e-07,0.0,0 STARLINK-6087,1 56801U 23078AL  23260.06589796 -.00000026  00000-0  15486-5 0  9991,2 56801  69.9981 107.4135 0003093 264.2316  95.8527 15.69928822 17123,6737.238,91.724,361.186,357.019,0.0
56801.0,STARLINK-6087,PAYLOAD,2023-09-17 22:59:25,15.69921118,0.000364,69.9969,104.9046,270.9544,89.1235,1.3297e-05,1.386e-05,0.0,0 STARLINK-6087,1 56801U 23078AL  23260.95793140  .00001386  00000-0  13297-4 0  9995,2 56801  69.9969 104.9046 0003640 270.9544  89.1235 15.69921118 17524,6737.26,91.724,361.577,356.672,0.0
56801.0,STARLINK-6087,PAYLOAD,2023-09-18 14:16:57,15.69915029,0.0003761,69.9967,103.113,271.4647,88.6118,4.9712e-06,3.85e-06,0.0,0 STARLINK-6087,1 56801U 23078AL  23261.59510455  .00000385  00000-0  49712-5 0  9992,2 56801  69.9967 103.1130 0003761 271.4647  88.6118 15.69915029 17361,6737.277,91.725,361.676,356.608,0.0
56801.0,STARLINK-6087,PAYLOAD,2023-09-18 17:20:27,15.69915399,0.0003543,69.9971,102.7546,268.5083,91.5707,6.7964e-06,6.04e-06,0.0,0 STARLINK-6087,1 56801U 23078AL  23261.72253712  .00000604  00000-0  67964-5 0  9990,2 56801  69.9971 102.7546 0003543 268.5083  91.5707 15.69915399 17649,6737.276,91.725,361.528,356.754,0.0
56801.0,STARLINK-6087,PAYLOAD,2023-09-18 20:23:57,15.69920775,0.0003735,69.9979,102.3988,270.0903,89.9865,1.1257e-05,1.141e-05,0.0,0 STARLINK-6087,1 56801U 23078AL  23261.84996725  .00001141  00000-0  11257-4 0  9991,2 56801  69.9979 102.3988 0003735 270.0903  89.9865 15.69920775 17409,6737.261,91.724,361.642,356.609,0.0
56801.0,STARLINK-6087,PAYLOAD,2023-09-19 00:59:11,15.69930181,0.0003186,69.9972,101.859,268.0099,92.0732,1.9136e-05,2.089e-05,0.0,0 STARLINK-6087,1 56801U 23078AL  23262.04110993  .00002089  00000-0  19136-4 0  9995,2 56801  69.9972 101.8590 0003186 268.0099  92.0732 15.69930181 17699,6737.234,91.724,361.245,356.952,0.0
56801.0,STARLINK-6087,PAYLOAD,2023-09-19 16:16:44,15.69908378,0.0003795,69.9976,100.0688,279.1122,80.9645,-1.2155e-05,-1.673e-05,0.0,0 STARLINK-6087,1 56801U 23078AL  23262.67829541 -.00001673  00000-0 -12155-4 0  9994,2 56801  69.9976 100.0688 0003795 279.1122  80.9645 15.69908378 17791,6737.296,91.725,361.718,356.604,0.0
